{
  "links" : {
    "next" : "https://api.nasa.gov/neo/rest/v1/feed?start_date=2014-02-16&end_date=2014-02-16&detailed=true&api_key=t0TVs3DtDT2H8Oy2Zy8m2eVrNsAVKAexjcZXUckd",
    "prev" : "https://api.nasa.gov/neo/rest/v1/feed?start_date=2014-02-14&end_date=2014-02-14&detailed=true&api_key=t0TVs3DtDT2H8Oy2Zy8m2eVrNsAVKAexjcZXUckd",
    "self" : "https://api.nasa.gov/neo/rest/v1/feed?start_date=2014-02-15&end_date=2014-02-15&detailed=true&api_key=t0TVs3DtDT2H8Oy2Zy8m2eVrNsAVKAexjcZXUckd"
  },
  "element_count" : 10,
  "near_earth_objects" : {
    "2014-02-15" : [ {
      "links" : {
        "self" : "https://api.nasa.gov/neo/rest/v1/neo/3660058?api_key=t0TVs3DtDT2H8Oy2Zy8m2eVrNsAVKAexjcZXUckd"
      },
      "neo_reference_id" : "3660058",
      "name" : "(2014 BQ43)",
      "nasa_jpl_url" : "http://ssd.jpl.nasa.gov/sbdb.cgi?sstr=3660058",
      "absolute_magnitude_h" : 23.1,
      "estimated_diameter" : {
        "kilometers" : {
          "estimated_diameter_min" : 0.063760979,
          "estimated_diameter_max" : 0.1425738833
        },
        "meters" : {
          "estimated_diameter_min" : 63.7609789875,
          "estimated_diameter_max" : 142.5738833281
        },
        "miles" : {
          "estimated_diameter_min" : 0.0396192233,
          "estimated_diameter_max" : 0.0885912765
        },
        "feet" : {
          "estimated_diameter_min" : 209.1895703015,
          "estimated_diameter_max" : 467.7620993781
        }
      },
      "is_potentially_hazardous_asteroid" : false,
      "close_approach_data" : [ {
        "close_approach_date" : "2014-02-15",
        "epoch_date_close_approach" : 1392451200000,
        "relative_velocity" : {
          "kilometers_per_second" : "15.411511774",
          "kilometers_per_hour" : "55481.442386378",
          "miles_per_hour" : "34474.010687247"
        },
        "miss_distance" : {
          "astronomical" : "0.0548916891",
          "lunar" : "21.3528671265",
          "kilometers" : "8211680",
          "miles" : "5102501.5"
        },
        "orbiting_body" : "Earth"
      } ],
      "orbital_data" : {
        "orbit_id" : "13",
        "orbit_determination_date" : "2017-04-06 08:42:41",
        "orbit_uncertainty" : "8",
        "minimum_orbit_intersection" : ".0178293",
        "jupiter_tisserand_invariant" : "3.801",
        "epoch_osculation" : "2456688.5",
        "eccentricity" : ".5710003052090787",
        "semi_major_axis" : "1.839999069852471",
        "inclination" : "4.77792588966707",
        "ascending_node_longitude" : "292.4264357204765",
        "orbital_period" : "911.6430639325637",
        "perihelion_distance" : ".7893590393822889",
        "perihelion_argument" : "280.097595933032",
        "aphelion_distance" : "2.890639100322652",
        "perihelion_time" : "2456747.069017435072",
        "mean_anomaly" : "336.871599082132",
        "mean_motion" : ".3948913936196305",
        "equinox" : "J2000"
      }
    }, {
      "links" : {
        "self" : "https://api.nasa.gov/neo/rest/v1/neo/3661459?api_key=t0TVs3DtDT2H8Oy2Zy8m2eVrNsAVKAexjcZXUckd"
      },
      "neo_reference_id" : "3661459",
      "name" : "(2014 CB13)",
      "nasa_jpl_url" : "http://ssd.jpl.nasa.gov/sbdb.cgi?sstr=3661459",
      "absolute_magnitude_h" : 26.3,
      "estimated_diameter" : {
        "kilometers" : {
          "estimated_diameter_min" : 0.0146067964,
          "estimated_diameter_max" : 0.0326617897
        },
        "meters" : {
          "estimated_diameter_min" : 14.6067964271,
          "estimated_diameter_max" : 32.6617897446
        },
        "miles" : {
          "estimated_diameter_min" : 0.0090762397,
          "estimated_diameter_max" : 0.020295089
        },
        "feet" : {
          "estimated_diameter_min" : 47.92256199,
          "estimated_diameter_max" : 107.1581062656
        }
      },
      "is_potentially_hazardous_asteroid" : false,
      "close_approach_data" : [ {
        "close_approach_date" : "2014-02-15",
        "epoch_date_close_approach" : 1392451200000,
        "relative_velocity" : {
          "kilometers_per_second" : "5.6230618618",
          "kilometers_per_hour" : "20243.0227023496",
          "miles_per_hour" : "12578.2270785794"
        },
        "miss_distance" : {
          "astronomical" : "0.0525442764",
          "lunar" : "20.4397239685",
          "kilometers" : "7860512",
          "miles" : "4884295.5"
        },
        "orbiting_body" : "Earth"
      } ],
      "orbital_data" : {
        "orbit_id" : "4",
        "orbit_determination_date" : "2017-04-06 08:42:33",
        "orbit_uncertainty" : "8",
        "minimum_orbit_intersection" : ".040209",
        "jupiter_tisserand_invariant" : "3.911",
        "epoch_osculation" : "2456698.5",
        "eccentricity" : ".436955315947205",
        "semi_major_axis" : "1.829672313393842",
        "inclination" : ".4302049633617341",
        "ascending_node_longitude" : "332.9082187543152",
        "orbital_period" : "903.9791244392372",
        "perihelion_distance" : "1.030187269614982",
        "perihelion_argument" : "183.2635071573826",
        "aphelion_distance" : "2.629157357172701",
        "perihelion_time" : "2456711.243722459994",
        "mean_anomaly" : "354.9249490817128",
        "mean_motion" : ".3982392848101639",
        "equinox" : "J2000"
      }
    }, {
      "links" : {
        "self" : "https://api.nasa.gov/neo/rest/v1/neo/2068031?api_key=t0TVs3DtDT2H8Oy2Zy8m2eVrNsAVKAexjcZXUckd"
      },
      "neo_reference_id" : "2068031",
      "name" : "68031 (2000 YK29)",
      "nasa_jpl_url" : "http://ssd.jpl.nasa.gov/sbdb.cgi?sstr=2068031",
      "absolute_magnitude_h" : 18.1,
      "estimated_diameter" : {
        "kilometers" : {
          "estimated_diameter_min" : 0.6376097899,
          "estimated_diameter_max" : 1.4257388333
        },
        "meters" : {
          "estimated_diameter_min" : 637.6097898754,
          "estimated_diameter_max" : 1425.7388332807
        },
        "miles" : {
          "estimated_diameter_min" : 0.3961922327,
          "estimated_diameter_max" : 0.8859127646
        },
        "feet" : {
          "estimated_diameter_min" : 2091.8957030147,
          "estimated_diameter_max" : 4677.6209937807
        }
      },
      "is_potentially_hazardous_asteroid" : false,
      "close_approach_data" : [ {
        "close_approach_date" : "2014-02-15",
        "epoch_date_close_approach" : 1392451200000,
        "relative_velocity" : {
          "kilometers_per_second" : "7.966250002",
          "kilometers_per_hour" : "28678.500007048",
          "miles_per_hour" : "17819.7046293794"
        },
        "miss_distance" : {
          "astronomical" : "0.2706216842",
          "lunar" : "105.2718353271",
          "kilometers" : "40484428",
          "miles" : "25155858"
        },
        "orbiting_body" : "Earth"
      } ],
      "orbital_data" : {
        "orbit_id" : "132",
        "orbit_determination_date" : "2017-04-06 09:28:48",
        "orbit_uncertainty" : "0",
        "minimum_orbit_intersection" : ".230786",
        "jupiter_tisserand_invariant" : "4.765",
        "epoch_osculation" : "2458000.5",
        "eccentricity" : ".1285193963714426",
        "semi_major_axis" : "1.376414411665568",
        "inclination" : "15.17198240584693",
        "ascending_node_longitude" : "123.6594343336236",
        "orbital_period" : "589.8237333303525",
        "perihelion_distance" : "1.199518462321355",
        "perihelion_argument" : "31.8621630786382",
        "aphelion_distance" : "1.553310361009781",
        "perihelion_time" : "2457887.468409519143",
        "mean_anomaly" : "68.98903905299083",
        "mean_motion" : ".6103518384506388",
        "equinox" : "J2000"
      }
    } ]
  }
}